[
    {
        "Altitude(m)": 562519.3097579452,
        "Argument of Periapsis(deg)": 0.033114955553567506,
        "Eccentricity": 0.0,
        "Inclination(deg)": 53.0,
        "Latitude(deg)": -30.087635709345985,
        "Longitude(deg)": 175.2768265817254,
        "Mean Anomaly(deg)": -38.63283566211208,
        "RAAN(deg)": 304.9507168426401,
        "Satellite Name": "Starlink Shell 1 1358",
        "Satellite Number": 1358,
        "Semi-Major Axis(m)": 6931778.249405717,
        "Time(s)": 950
    },
    {
        "Altitude(m)": 562344.1429976281,
        "Argument of Periapsis(deg)": 0.03346353403307874,
        "Eccentricity": 0.0,
        "Inclination(deg)": 53.0,
        "Latitude(deg)": -29.634656731236312,
        "Longitude(deg)": 175.73457039125537,
        "Mean Anomaly(deg)": -38.00600445855533,
        "RAAN(deg)": 304.9501980725626,
        "Satellite Name": "Starlink Shell 1 1358",
        "Satellite Number": 1358,
        "Semi-Major Axis(m)": 6931778.249405717,
        "Time(s)": 960
    },
    {
        "Altitude(m)": 562169.1932575975,
        "Argument of Periapsis(deg)": 0.03381211251258998,
        "Eccentricity": 0.0,
        "Inclination(deg)": 53.0,
        "Latitude(deg)": -29.179772497937396,
        "Longitude(deg)": 176.187877386566,
        "Mean Anomaly(deg)": -37.379173254998584,
        "RAAN(deg)": 304.94967930248515,
        "Satellite Name": "Starlink Shell 1 1358",
        "Satellite Number": 1358,
        "Semi-Major Axis(m)": 6931778.249405717,
        "Time(s)": 970
    },
    {
        "Altitude(m)": 561994.5258204878,
        "Argument of Periapsis(deg)": 0.034160690992101214,
        "Eccentricity": 0.0,
        "Inclination(deg)": 53.0,
        "Latitude(deg)": -28.72303305437724,
        "Longitude(deg)": 176.63685002015734,
        "Mean Anomaly(deg)": -36.752342051441886,
        "RAAN(deg)": 304.9491605324077,
        "Satellite Name": "Starlink Shell 1 1358",
        "Satellite Number": 1358,
        "Semi-Major Axis(m)": 6931778.249405717,
        "Time(s)": 980
    },
    {
        "Altitude(m)": 561820.2056964156,
        "Argument of Periapsis(deg)": 0.034509269471612446,
        "Eccentricity": 0.0,
        "Inclination(deg)": 53.0,
        "Latitude(deg)": -28.264487351864087,
        "Longitude(deg)": 177.08158995801145,
        "Mean Anomaly(deg)": -36.12551084788524,
        "RAAN(deg)": 304.9486417623302,
        "Satellite Name": "Starlink Shell 1 1358",
        "Satellite Number": 1358,
        "Semi-Major Axis(m)": 6931778.249405717,
        "Time(s)": 990
    }
]